OBJECT_NAME,OBJECT_ID,EPOCH,MEAN_MOTION,ECCENTRICITY,INCLINATION,RA_OF_ASC_NODE,ARG_OF_PERICENTER,MEAN_ANOMALY,EPHEMERIS_TYPE,CLASSIFICATION_TYPE,NORAD_CAT_ID,ELEMENT_SET_NO,REV_AT_EPOCH,BSTAR,MEAN_MOTION_DOT,MEAN_MOTION_DDOT
LEMUR-2-ROUNDTRIPPER,2025-009DG,2026-07-12T04:13:28.443360,15.04200239,.00043759,97.7248,275.8230,70.1877,289.9820,0,U,62711,999,8138,.3858306E-3,.5299E-4,0
LEMUR-2-MYNAMEISJEFF,2025-009DH,2026-07-12T04:11:16.161504,15.04192021,.00038031,97.7300,276.2178,104.0635,256.1013,0,U,62712,999,8138,.37556025E-3,.5155E-4,0
LEMUR-2-LEIA-PHILIP,2025-052AN,2026-07-12T14:20:07.965024,14.97389016,.00050875,97.6812,85.1176,125.1270,235.0429,0,U,63246,999,7247,.57445626E-4,.61E-5,0
LEMUR-2-LIA-MARTIN,2025-052AQ,2026-07-12T12:37:41.162304,14.98016816,.00054012,97.6876,85.5617,96.3421,263.8416,0,U,63248,999,7247,.24768443E-3,.2868E-4,0
LEMUR-2-DELOITTE-1,2025-052BB,2026-07-12T15:21:18.429696,14.97770021,.00024549,97.6884,86.0040,67.1042,293.0439,0,U,63259,999,7250,.19090409E-3,.2183E-4,0
LEMUR-2-EMERSONROSE,2025-052BD,2026-07-12T04:32:41.063424,14.99273394,.00028094,97.6886,86.1670,65.5633,294.5883,0,U,63261,999,7248,.24432176E-3,.2923E-4,0
LEMUR-2-MARACHE-FRAN,2025-052BE,2026-07-12T03:32:18.348576,15.00303753,.00048452,97.6853,86.4899,266.1769,93.8900,0,U,63262,999,7250,.14976894E-3,.1818E-4,0
LEMUR-2-THEFALCONER,2025-052BG,2026-07-12T14:28:25.117536,14.97557217,.00004195,97.6844,85.5616,355.5880,4.5339,0,U,63264,999,7249,.11555883E-3,.1291E-4,0
LEMUR-2-UNTITLED-SC,2025-061A,2026-07-12T09:49:31.483488,15.13635502,.00189425,97.5648,168.5915,172.4390,187.7130,0,U,63351,999,7140,.12971279E-3,.2273E-4,0
LEMUR-2-ESPERANZA,2025-061B,2026-07-12T10:49:28.570368,15.13742340,.00185437,97.5656,168.7323,171.5151,188.6398,0,U,63352,999,7141,.92369652E-4,.1604E-4,0
LEMUR-2-KREMPEL-BRO2,2025-061C,2026-07-12T12:53:04.211520,15.14168317,.00196983,97.5702,169.3834,164.1650,196.0202,0,U,63353,999,7144,.12231654E-3,.2173E-4,0
LEMUR-2-THERMORAPTOR,2025-061D,2026-07-12T09:14:58.036416,15.14250775,.00194676,97.5707,169.3131,163.5067,196.6802,0,U,63354,999,7142,.10034005E-3,.1775E-4,0
LEMUR-2-NEUROSPICY,2025-061E,2026-07-12T08:31:23.093760,15.14368466,.00171868,97.5634,168.8898,166.3942,193.7757,0,U,63355,999,7142,.12585313E-3,.2249E-4,0
LEMUR-2-TILLINFINITY,2025-061F,2026-07-12T09:08:11.883840,15.14952784,.00187877,97.5620,169.2233,155.1465,205.0676,0,U,63356,999,7145,.1013545E-3,.1829E-4,0
LEMUR-2-KREMPEL-BRO1,2025-061G,2026-07-12T10:09:45.623808,15.14759905,.00193802,97.5621,169.1749,156.3294,203.8834,0,U,63357,999,7145,.12204196E-3,.2205E-4,0
LEMUR-2-LANGER2SPACE,2025-061H,2026-07-12T12:30:21.610944,15.14454541,.00171358,97.5625,169.0758,164.2647,195.9121,0,U,63358,999,7145,.10109924E-3,.1797E-4,0
LEMUR-2-BALTO,2025-052BH,2026-07-12T09:34:04.588608,15.00348293,.00052479,97.6934,86.7232,339.3713,20.7298,0,U,63395,999,7254,.23128421E-3,.2843E-4,0
LEMUR-2-KRISH,2025-135AK,2026-07-11T19:36:33.699744,14.96434298,.00016273,97.7770,307.5283,96.8966,263.2441,0,U,64561,999,5760,.23929928E-3,.2656E-4,0
LEMUR-2-HUBBLE-4,2025-135AP,2026-07-12T06:15:17.091936,14.93680043,.000244,97.7716,306.8753,170.3654,189.7613,0,U,64565,999,5761,.11088E-3,.1116E-4,0
LEMUR-2-SEJONG-2,2025-135BL,2026-07-12T13:47:11.684256,14.96899720,.00037808,97.7704,308.4268,231.1125,128.9759,0,U,64586,999,5774,.18761561E-3,.2095E-4,0
LEMUR-2-HUBBLE-5,2025-135BT,2026-07-12T06:29:30.088032,14.94208283,.0004192,97.7737,307.5509,247.2369,112.8409,0,U,64840,999,5765,.11093E-3,.1131E-4,0
LEMUR-2-KARENDARRELL,2025-135BU,2026-07-12T09:29:41.897184,15.00474670,.00121274,97.7707,309.5687,112.8315,247.4190,0,U,64841,999,5779,.34879642E-3,.4338E-4,0
LEMUR-2-LUCILLE-ROSE,2025-135BV,2026-07-12T13:39:31.806432,15.00470088,.00145493,97.7713,309.7785,197.1215,162.9519,0,U,65403,999,5244,.30653338E-3,.3806E-4,0
LEMUR-2-AFFIE-WAUWIE,2025-248C,2026-07-12T10:16:00.043392,15.28172277,.00087247,45.3911,338.1335,238.0839,121.9202,0,U,66295,999,3845,.45877995E-3,.12562E-3,0
OTTER SDM,2025-276N,2026-07-12T04:49:12.998496,15.20034932,.00042402,97.4210,266.2646,268.1515,91.9235,0,U,66678,999,3421,.1761888E-3,.3731E-4,0
LEMUR-2-STAS-GORBUK,2025-276W,2026-07-11T18:15:12.905856,15.19636638,.00034497,97.4242,265.8836,265.6939,94.3901,0,U,66686,999,3414,.1630158E-3,.3406E-4,0
LEMUR-2-TEODOR,2025-276DG,2026-07-12T10:34:51.521376,15.21318646,.00022742,97.4147,266.8209,90.2746,269.8751,0,U,66768,999,3428,.14388646E-3,.3151E-4,0
LEMUR-2-LAILA,2025-276DQ,2026-07-12T03:33:09.397152,15.21543038,.00029124,97.4171,266.6695,98.7962,261.3604,0,U,66776,999,3424,.16782051E-3,.3711E-4,0
LEMUR-2-CELIJO-SB-PK,2025-276DW,2026-07-12T10:48:29.285280,15.00268971,.00071624,97.5201,263.3941,70.8550,289.3449,0,U,66781,999,2641,.26341711E-3,.3243E-4,0
