LEMUR-2-ROUNDTRIPPER    
1 62711U 25009DG  26193.17602365  .00005299  00000+0  38583-3 0  9998
2 62711  97.7248 275.8230 0004375  70.1877 289.9820 15.04200239 81386
LEMUR-2-MYNAMEISJEFF    
1 62712U 25009DH  26193.17449261  .00005155  00000+0  37556-3 0  9993
2 62712  97.7300 276.2178 0003803 104.0635 256.1013 15.04192021 81385
LEMUR-2-LEIA-PHILIP     
1 63246U 25052AN  26193.59731441  .00000610  00000+0  57446-4 0  9996
2 63246  97.6812  85.1176 0005087 125.1270 235.0429 14.97389016 72475
LEMUR-2-LIA-MARTIN      
1 63248U 25052AQ  26193.52617086  .00002868  00000+0  24768-3 0  9996
2 63248  97.6876  85.5617 0005401  96.3421 263.8416 14.98016816 72479
LEMUR-2-DELOITTE-1      
1 63259U 25052BB  26193.63979664  .00002183  00000+0  19090-3 0  9995
2 63259  97.6884  86.0040 0002454  67.1042 293.0439 14.97770021 72504
LEMUR-2-EMERSONROSE     
1 63261U 25052BD  26193.18936416  .00002923  00000+0  24432-3 0  9994
2 63261  97.6886  86.1670 0002809  65.5633 294.5883 14.99273394 72480
LEMUR-2-MARACHE-FRAN    
1 63262U 25052BE  26193.14743459  .00001818  00000+0  14977-3 0  9999
2 63262  97.6853  86.4899 0004845 266.1769  93.8900 15.00303753 72501
LEMUR-2-THEFALCONER     
1 63264U 25052BG  26193.60306849  .00001291  00000+0  11556-3 0  9995
2 63264  97.6844  85.5616 0000419 355.5880   4.5339 14.97557217 72494
LEMUR-2-UNTITLED-SC     
1 63351U 25061A   26193.40939217  .00002273  00000+0  12971-3 0  9994
2 63351  97.5648 168.5915 0018942 172.4390 187.7130 15.13635502 71404
LEMUR-2-ESPERANZA       
1 63352U 25061B   26193.45102512  .00001604  00000+0  92370-4 0  9999
2 63352  97.5656 168.7323 0018543 171.5151 188.6398 15.13742340 71417
LEMUR-2-KREMPEL-BRO2    
1 63353U 25061C   26193.53685430  .00002173  00000+0  12232-3 0  9994
2 63353  97.5702 169.3834 0019698 164.1650 196.0202 15.14168317 71445
LEMUR-2-THERMORAPTOR    
1 63354U 25061D   26193.38539394  .00001775  00000+0  10034-3 0  9990
2 63354  97.5707 169.3131 0019467 163.5067 196.6802 15.14250775 71420
LEMUR-2-NEUROSPICY      
1 63355U 25061E   26193.35512840  .00002249  00000+0  12585-3 0  9995
2 63355  97.5634 168.8898 0017186 166.3942 193.7757 15.14368466 71427
LEMUR-2-TILLINFINITY    
1 63356U 25061F   26193.38069310  .00001829  00000+0  10135-3 0  9990
2 63356  97.5620 169.2233 0018787 155.1465 205.0676 15.14952784 71457
LEMUR-2-KREMPEL-BRO1    
1 63357U 25061G   26193.42344472  .00002205  00000+0  12204-3 0  9999
2 63357  97.5621 169.1749 0019380 156.3294 203.8834 15.14759905 71455
LEMUR-2-LANGER2SPACE    
1 63358U 25061H   26193.52108346  .00001797  00000+0  10110-3 0  9998
2 63358  97.5625 169.0758 0017135 164.2647 195.9121 15.14454541 71453
LEMUR-2-BALTO           
1 63395U 25052BH  26193.39866422  .00002843  00000+0  23128-3 0  9996
2 63395  97.6934  86.7232 0005247 339.3713  20.7298 15.00348293 72542
LEMUR-2-KRISH           
1 64561U 25135AK  26192.81705671  .00002656  00000+0  23930-3 0  9991
2 64561  97.7770 307.5283 0001627  96.8966 263.2441 14.96434298 57609
LEMUR-2-HUBBLE-4        
1 64565U 25135AP  26193.26061449  .00001116  00000+0  11088-3 0  9994
2 64565  97.7716 306.8753 0002440 170.3654 189.7613 14.93680043 57615
LEMUR-2-SEJONG-2        
1 64586U 25135BL  26193.57444079  .00002095  00000+0  18762-3 0  9998
2 64586  97.7704 308.4268 0003780 231.1125 128.9759 14.96899720 57748
LEMUR-2-HUBBLE-5        
1 64840U 25135BT  26193.27048713  .00001131  00000+0  11093-3 0  9993
2 64840  97.7737 307.5509 0004192 247.2369 112.8409 14.94208283 57651
LEMUR-2-KARENDARRELL    
1 64841U 25135BU  26193.39562381  .00004338  00000+0  34880-3 0  9990
2 64841  97.7707 309.5687 0012127 112.8315 247.4190 15.00474670 57793
LEMUR-2-LUCILLE-ROSE    
1 65403U 25135BV  26193.56911813  .00003806  00000+0  30653-3 0  9995
2 65403  97.7713 309.7785 0014549 197.1215 162.9519 15.00470088 52443
LEMUR-2-AFFIE-WAUWIE    
1 66295U 25248C   26193.42777828  .00012562  00000+0  45878-3 0  9995
2 66295  45.3911 338.1335 0008724 238.0839 121.9202 15.28172277 38452
OTTER SDM               
1 66678U 25276N   26193.20084489  .00003731  00000+0  17619-3 0  9991
2 66678  97.4210 266.2646 0004240 268.1515  91.9235 15.20034932 34216
LEMUR-2-STAS-GORBUK     
1 66686U 25276W   26192.76056604  .00003406  00000+0  16302-3 0  9995
2 66686  97.4242 265.8836 0003449 265.6939  94.3901 15.19636638 34146
LEMUR-2-TEODOR          
1 66768U 25276DG  26193.44087409  .00003151  00000+0  14389-3 0  9999
2 66768  97.4147 266.8209 0002274  90.2746 269.8751 15.21318646 34285
LEMUR-2-LAILA           
1 66776U 25276DQ  26193.14802543  .00003711  00000+0  16782-3 0  9990
2 66776  97.4171 266.6695 0002912  98.7962 261.3604 15.21543038 34245
LEMUR-2-CELIJO-SB-PK    
1 66781U 25276DW  26193.45033895  .00003243  00000+0  26342-3 0  9999
2 66781  97.5201 263.3941 0007162  70.8550 289.3449 15.00268971 26414
